{
    "links": {
        "self": "http://www.neowsapp.com/rest/v1/neo/3837561?api_key=iIulBulltgU6a56xZRHN4H3l9WmuAYTsLGpBGhQ2"
    },
    "id": "3837561",
    "neo_reference_id": "3837561",
    "name": "(2019 AR)",
    "designation": "2019 AR",
    "nasa_jpl_url": "http://ssd.jpl.nasa.gov/sbdb.cgi?sstr=3837561",
    "absolute_magnitude_h": 24.2,
    "estimated_diameter": {
        "kilometers": {
            "estimated_diameter_min": 0.0384197891,
            "estimated_diameter_max": 0.0859092601
        },
        "meters": {
            "estimated_diameter_min": 38.4197891064,
            "estimated_diameter_max": 85.9092601232
        },
        "miles": {
            "estimated_diameter_min": 0.0238729428,
            "estimated_diameter_max": 0.0533815229
        },
        "feet": {
            "estimated_diameter_min": 126.0491808919,
            "estimated_diameter_max": 281.8545369825
        }
    },
    "is_potentially_hazardous_asteroid": false,
    "close_approach_data": [
        {
            "close_approach_date": "2018-12-22",
            "close_approach_date_full": "2018-Dec-22 10:50",
            "epoch_date_close_approach": 1545475800000,
            "relative_velocity": {
                "kilometers_per_second": "16.7137923702",
                "kilometers_per_hour": "60169.6525327549",
                "miles_per_hour": "37387.0821529221"
            },
            "miss_distance": {
                "astronomical": "0.1461670286",
                "lunar": "56.8589741254",
                "kilometers": "21866276.142789082",
                "miles": "13587073.9541380516"
            },
            "orbiting_body": "Earth"
        }
    ],
    "orbital_data": {
        "orbit_id": "3",
        "orbit_determination_date": "2019-01-09 07:19:38",
        "first_observation_date": "2019-01-02",
        "last_observation_date": "2019-01-09",
        "data_arc_in_days": 7,
        "observations_used": 16,
        "orbit_uncertainty": "9",
        "minimum_orbit_intersection": ".138583",
        "jupiter_tisserand_invariant": "3.930",
        "epoch_osculation": "2458486.5",
        "eccentricity": ".5004989165951379",
        "semi_major_axis": "1.721022952501814",
        "inclination": "24.40566817456572",
        "ascending_node_longitude": "284.28939907",
        "orbital_period": "824.6666283632443",
        "perihelion_distance": ".8596528293392908",
        "perihelion_argument": "99.35609428247517",
        "aphelion_distance": "2.582393075664338",
        "perihelion_time": "2458421.876878553835",
        "mean_anomaly": "28.21057979124635",
        "mean_motion": ".4365400364441925",
        "equinox": "J2000",
        "orbit_class": {
            "orbit_class_type": "APO",
            "orbit_class_description": "Near-Earth asteroid orbits which cross the Earth’s orbit similar to that of 1862 Apollo",
            "orbit_class_range": "a (semi-major axis) > 1.0 AU; q (perihelion) < 1.017 AU"
        }
    },
    "is_sentry_object": false
}